ORBCOMM FM20 [+]        
1 25416U 98046D   23244.10881930  .00000974  00000+0  39292-3 0  9997
2 25416  44.9960  35.8664 0001276 175.0671 185.0188 14.34345808310169
ORBCOMM FM16 [-]        
1 25417U 98046E   23243.86167490  .00001249  00000+0  48356-3 0  9995
2 25417  44.9961  34.3684 0004273 231.5116 128.5348 14.34995687310008
ORBCOMM FM15 [-]        
1 25418U 98046F   23244.12190470  .00001218  00000+0  47496-3 0  9990
2 25418  44.9995  36.6477 0003688 234.0731 125.9774 14.34763595310220
ORBCOMM FM14 [-]        
1 25419U 98046G   23243.85003635  .00001354  00000+0  52158-3 0  9998
2 25419  44.9982  37.3126 0002842 214.4745 294.5667 14.34860011309968
ORBCOMM FM13 [+]        
1 25420U 98046H   23243.82922604  .00001078  00000+0  42949-3 0  9993
2 25420  44.9996  41.0787 0004948 221.6735 138.3736 14.34355013309040
ORBCOMM FM21 [-]        
1 25475U 98053A   23244.05661500  .00001012  00000+0  40618-3 0  9991
2 25475  45.0090 124.0811 0000469   2.6446 357.4403 14.34379801303429
ORBCOMM FM22 [-]        
1 25476U 98053B   23243.06474096  .00001094  00000+0  43223-3 0  9999
2 25476  45.0086 126.8782 0001171 163.2707 196.8178 14.34720574302933
ORBCOMM FM23 [-]        
1 25477U 98053C   23243.87658940  .00000987  00000+0  39771-3 0  9994
2 25477  45.0091 127.3626 0000499 163.4913 196.5950 14.34353434303210
